OBJECT_NAME,OBJECT_ID,EPOCH,MEAN_MOTION,ECCENTRICITY,INCLINATION,RA_OF_ASC_NODE,ARG_OF_PERICENTER,MEAN_ANOMALY,EPHEMERIS_TYPE,CLASSIFICATION_TYPE,NORAD_CAT_ID,ELEMENT_SET_NO,REV_AT_EPOCH,BSTAR,MEAN_MOTION_DOT,MEAN_MOTION_DDOT
FENGYUN 3D,2017-072A,2026-06-28T21:59:57.715008,14.19741719,.00022116,99.0125,154.5509,43.7709,316.3641,0,U,43010,999,44665,.66088586E-4,.94E-6,0
NOAA 20 (JPSS-1),2017-073A,2026-06-28T21:55:28.483104,14.19513755,.0000717,98.7773,119.2719,135.3833,224.7401,0,U,43013,999,44613,.39273854E-4,.39E-6,0
GOES 17,2018-022A,2026-06-28T22:18:00.844416,1.00272408,.00007259,0.9658,85.5236,26.0161,50.4789,0,U,43226,999,3054,0,-.172E-5,0
SENTINEL-3B,2018-039A,2026-06-28T19:57:01.908576,14.26737846,.00007876,98.6245,247.1963,110.7212,249.4053,0,U,43437,999,42578,.61078967E-4,.104E-5,0
FENGYUN 2H,2018-050A,2026-06-28T23:06:10.850112,1.00269771,.00017328,3.0612,78.9433,121.8190,142.1582,0,U,43491,999,2955,0,-.121E-5,0
METOP-C,2018-087A,2026-06-28T21:26:05.456544,14.21515052,.00020804,98.6640,239.2826,114.8099,245.3295,0,U,43689,999,39649,.6305707E-4,.95E-6,0
GEO-KOMPSAT-2A,2018-100A,2026-06-28T23:20:02.021568,1.00271731,.00023954,0.0430,129.0252,321.3321,304.9795,0,U,43823,999,2774,0,-.332E-5,0
METEOR-M2 2,2019-038A,2026-06-28T23:25:06.408768,14.24368328,.00015746,98.9143,167.4351,31.4528,328.6745,0,U,44387,999,36297,-.5976762E-4,-.184E-5,0
ARKTIKA-M 1,2021-016A,2026-06-26T23:04:08.221728,2.00619221,.72918394,63.2527,56.2167,269.9811,14.5584,0,U,47719,999,3898,0,-.323E-5,0
FENGYUN 3E,2021-062A,2026-06-28T23:16:19.517376,14.19905139,.00027377,98.7490,183.2460,67.3478,292.7987,0,U,49008,999,25825,-.37628669E-4,-.124E-5,0
GOES 18,2022-021A,2026-06-28T16:56:25.749312,1.00273873,.00007314,0.0196,178.3021,312.1571,263.4539,0,U,51850,999,670,0,.108E-5,0
NOAA 21 (JPSS-2),2022-150A,2026-06-28T22:42:21.720672,14.19538529,.00023105,98.7061,118.5378,133.7774,226.3594,0,U,54234,999,18821,.43704832E-4,.49E-6,0
METEOSAT-12 (MTG-I1),2022-170C,2026-06-28T22:43:27.528960,1.00275817,.00036884,0.7510,24.8222,72.6401,160.1379,0,U,54743,999,1309,0,.4E-7,0
TIANMU-1 03,2023-039A,2026-06-28T22:45:56.613024,15.47610733,.00038619,97.5228,354.3808,70.5738,289.5929,0,U,55973,999,18265,.27975518E-3,.14339E-3,0
TIANMU-1 04,2023-039B,2026-06-28T22:24:11.813184,15.48221819,.00042626,97.5168,353.5194,63.6898,296.4789,0,U,55974,999,18266,.27616926E-3,.1446E-3,0
TIANMU-1 05,2023-039C,2026-06-28T22:19:04.260288,15.47536416,.00038407,97.5212,353.9717,86.1728,273.9961,0,U,55975,999,18263,.27866575E-3,.14246E-3,0
TIANMU-1 06,2023-039D,2026-06-29T00:03:12.222720,15.48124206,.000405,97.5220,354.6946,81.1878,278.9831,0,U,55976,999,18267,.2712273E-3,.1415E-3,0
FENGYUN 3G,2023-055A,2026-06-28T19:37:38.389152,15.53135617,.00072913,49.9934,286.0729,344.8745,15.2003,0,U,56232,999,18181,.3463776E-3,.21759E-3,0
METEOR-M2 3,2023-091A,2026-06-28T23:20:49.594272,14.24047692,.00048867,98.6078,234.7098,126.9404,233.2223,0,U,57166,999,15619,.18257946E-4,-.1E-7,0
TIANMU-1 07,2023-101A,2026-06-28T22:31:58.774944,15.29940203,.00043292,97.2589,230.3375,97.6928,262.4805,0,U,57399,999,16344,.20733895E-3,.5937E-4,0
TIANMU-1 08,2023-101B,2026-06-28T23:18:04.757760,15.29944924,.00056292,97.2578,230.1378,86.7055,273.4830,0,U,57400,999,16344,.20202263E-3,.5785E-4,0
TIANMU-1 09,2023-101C,2026-06-28T22:53:50.123904,15.29979903,.00049116,97.2536,229.5311,100.6180,259.5614,0,U,57401,999,16344,.21197158E-3,.6079E-4,0
TIANMU-1 10,2023-101D,2026-06-28T23:41:44.097216,15.29952788,.00064247,97.2615,230.6260,96.1647,264.0326,0,U,57402,999,16344,.20885807E-3,.5985E-4,0
FENGYUN 3F,2023-111A,2026-06-28T22:52:45.981408,14.19940908,.00015189,98.6834,249.7427,84.5228,275.6121,0,U,57490,999,15053,.36536724E-4,.34E-6,0
ARKTIKA-M 2,2023-198A,2026-06-26T05:35:41.970624,2.00610703,.69048743,63.2200,153.3551,267.3978,18.7558,0,U,58584,999,1850,0,.156E-5,0
TIANMU-1 11,2023-205A,2026-06-28T23:30:35.564256,15.27112677,.00075644,97.3439,201.3516,333.4982,26.5870,0,U,58645,999,13932,.1966178E-3,.5158E-4,0
TIANMU-1 12,2023-205B,2026-06-29T00:22:49.630080,15.27011080,.00054927,97.3429,201.1404,312.9942,47.0836,0,U,58646,999,13931,.20848217E-3,.5455E-4,0
TIANMU-1 13,2023-205C,2026-06-28T23:36:16.477056,15.26932953,.00049941,97.3456,201.3832,288.0877,71.9818,0,U,58647,999,13930,.19731825E-3,.5146E-4,0
TIANMU-1 14,2023-205D,2026-06-28T23:14:28.480416,15.26977424,.00058451,97.3392,200.5408,294.7542,65.3089,0,U,58648,999,13930,.19482665E-3,.5088E-4,0
TIANMU-1 19,2023-208A,2026-06-28T21:58:52.410432,15.31745516,.0003486,97.4516,296.2766,270.6466,89.4376,0,U,58660,999,13912,.2445526E-3,.7418E-4,0
