FENGYUN 3D              
1 43010U 17072A   26179.91664022  .00000094  00000+0  66089-4 0  9995
2 43010  99.0125 154.5509 0002211  43.7709 316.3641 14.19741719446654
NOAA 20 (JPSS-1)        
1 43013U 17073A   26179.91352411  .00000039  00000+0  39274-4 0  9990
2 43013  98.7773 119.2719 0000717 135.3833 224.7401 14.19513755446134
GOES 17                 
1 43226U 18022A   26179.92917644 -.00000172  00000+0  00000+0 0  9996
2 43226   0.9658  85.5236 0000725  26.0161  50.4789  1.00272408 30545
SENTINEL-3B             
1 43437U 18039A   26179.83127209  .00000104  00000+0  61079-4 0  9990
2 43437  98.6245 247.1963 0000787 110.7212 249.4053 14.26737846425786
FENGYUN 2H              
1 43491U 18050A   26179.96262558 -.00000121  00000+0  00000+0 0  9996
2 43491   3.0612  78.9433 0001732 121.8190 142.1582  1.00269771 29551
METOP-C                 
1 43689U 18087A   26179.89311871  .00000095  00000+0  63057-4 0  9995
2 43689  98.6640 239.2826 0002080 114.8099 245.3295 14.21515052396496
GEO-KOMPSAT-2A          
1 43823U 18100A   26179.97224562 -.00000332  00000+0  00000+0 0  9999
2 43823   0.0430 129.0252 0002395 321.3321 304.9795  1.00271731 27743
METEOR-M2 2             
1 44387U 19038A   26179.97576862 -.00000184  00000+0 -59768-4 0  9995
2 44387  98.9143 167.4351 0001574  31.4528 328.6745 14.24368328362972
ARKTIKA-M 1             
1 47719U 21016A   26177.96120627 -.00000323  00000+0  00000+0 0  9991
2 47719  63.2527  56.2167 7291839 269.9811  14.5584  2.00619221 38985
FENGYUN 3E              
1 49008U 21062A   26179.96967034 -.00000124  00000+0 -37629-4 0  9990
2 49008  98.7490 183.2460 0002737  67.3478 292.7987 14.19905139258256
GOES 18                 
1 51850U 22021A   26179.70585358  .00000108  00000+0  00000+0 0  9999
2 51850   0.0196 178.3021 0000731 312.1571 263.4539  1.00273873  6706
NOAA 21 (JPSS-2)        
1 54234U 22150A   26179.94608473  .00000049  00000+0  43705-4 0  9999
2 54234  98.7061 118.5378 0002310 133.7774 226.3594 14.19538529188210
METEOSAT-12 (MTG-I1)    
1 54743U 22170C   26179.94684640  .00000004  00000+0  00000+0 0  9993
2 54743   0.7510  24.8222 0003688  72.6401 160.1379  1.00275817 13094
TIANMU-1 03             
1 55973U 23039A   26179.94857191  .00014339  00000+0  27976-3 0  9998
2 55973  97.5228 354.3808 0003861  70.5738 289.5929 15.47610733182656
TIANMU-1 04             
1 55974U 23039B   26179.93347006  .00014460  00000+0  27617-3 0  9994
2 55974  97.5168 353.5194 0004262  63.6898 296.4789 15.48221819182661
TIANMU-1 05             
1 55975U 23039C   26179.92991042  .00014246  00000+0  27867-3 0  9998
2 55975  97.5212 353.9717 0003840  86.1728 273.9961 15.47536416182630
TIANMU-1 06             
1 55976U 23039D   26180.00222480  .00014150  00000+0  27123-3 0  9992
2 55976  97.5220 354.6946 0004050  81.1878 278.9831 15.48124206182673
FENGYUN 3G              
1 56232U 23055A   26179.81780543  .00021759  00000+0  34638-3 0  9994
2 56232  49.9934 286.0729 0007291 344.8745  15.2003 15.53135617181813
METEOR-M2 3             
1 57166U 23091A   26179.97279623 -.00000001  00000+0  18258-4 0  9999
2 57166  98.6078 234.7098 0004886 126.9404 233.2223 14.24047692156198
TIANMU-1 07             
1 57399U 23101A   26179.93887471  .00005937  00000+0  20734-3 0  9994
2 57399  97.2589 230.3375 0004329  97.6928 262.4805 15.29940203163447
TIANMU-1 08             
1 57400U 23101B   26179.97088840  .00005785  00000+0  20202-3 0  9995
2 57400  97.2578 230.1378 0005629  86.7055 273.4830 15.29944924163447
TIANMU-1 09             
1 57401U 23101C   26179.95405236  .00006079  00000+0  21197-3 0  9997
2 57401  97.2536 229.5311 0004911 100.6180 259.5614 15.29979903163449
TIANMU-1 10             
1 57402U 23101D   26179.98731594  .00005985  00000+0  20886-3 0  9999
2 57402  97.2615 230.6260 0006424  96.1647 264.0326 15.29952788163445
FENGYUN 3F              
1 57490U 23111A   26179.95330997  .00000034  00000+0  36537-4 0  9997
2 57490  98.6834 249.7427 0001518  84.5228 275.6121 14.19940908150537
ARKTIKA-M 2             
1 58584U 23198A   26177.23312466  .00000156  00000+0  00000+0 0  9993
2 58584  63.2200 153.3551 6904874 267.3978  18.7558  2.00610703 18505
TIANMU-1 11             
1 58645U 23205A   26179.97957829  .00005158  00000+0  19662-3 0  9996
2 58645  97.3439 201.3516 0007564 333.4982  26.5870 15.27112677139322
TIANMU-1 12             
1 58646U 23205B   26180.01585220  .00005455  00000+0  20848-3 0  9994
2 58646  97.3429 201.1404 0005492 312.9942  47.0836 15.27011080139317
TIANMU-1 13             
1 58647U 23205C   26179.98352404  .00005146  00000+0  19732-3 0  9992
2 58647  97.3456 201.3832 0004994 288.0877  71.9818 15.26932953139306
TIANMU-1 14             
1 58648U 23205D   26179.96838519  .00005088  00000+0  19483-3 0  9995
2 58648  97.3392 200.5408 0005845 294.7542  65.3089 15.26977424139304
TIANMU-1 19             
1 58660U 23208A   26179.91588438  .00007418  00000+0  24455-3 0  9993
2 58660  97.4516 296.2766 0003486 270.6466  89.4376 15.31745516139120
